[{"OBJECT_NAME":"STARLINK-5227","OBJECT_ID":"2022-141AA","EPOCH":"2026-03-09T23:22:03.275328","MEAN_MOTION":15.08822733,"ECCENTRICITY":0.00013917,"INCLINATION":53.2188,"RA_OF_ASC_NODE":2.6237,"ARG_OF_PERICENTER":50.0725,"MEAN_ANOMALY":310.0389,"EPHEMERIS_TYPE":0,"CLASSIFICATION_TYPE":"U","NORAD_CAT_ID":54181,"ELEMENT_SET_NO":999,"REV_AT_EPOCH":18590,"BSTAR":-0.00013242959,"MEAN_MOTION_DOT":-2.394e-5,"MEAN_MOTION_DDOT":0},{"OBJECT_NAME":"PEGASUS DEB","OBJECT_ID":"1994-029LN","EPOCH":"2026-03-09T13:32:28.639104","MEAN_MOTION":14.7969053,"ECCENTRICITY":0.014325,"INCLINATION":81.5077,"RA_OF_ASC_NODE":265.5669,"ARG_OF_PERICENTER":165.8227,"MEAN_ANOMALY":194.7072,"EPHEMERIS_TYPE":0,"CLASSIFICATION_TYPE":"U","NORAD_CAT_ID":24239,"ELEMENT_SET_NO":999,"REV_AT_EPOCH":56152,"BSTAR":0.0015079,"MEAN_MOTION_DOT":0.00013522,"MEAN_MOTION_DDOT":0}]
